CCSDS_OMM_VERS = 2.0
CREATION_DATE  = 
ORIGINATOR     = 

OBJECT_NAME    = SL-14 R/B
OBJECT_ID      = 1987-055B
CENTER_NAME    = EARTH
REF_FRAME      = TEME
TIME_SYSTEM    = UTC
MEAN_ELEMENT_THEORY = SGP/SGP4

EPOCH          = 2026-02-15T09:12:43.219584
MEAN_MOTION    = 14.85601463
ECCENTRICITY   = .00223471
INCLINATION    = 82.5007
RA_OF_ASC_NODE = 10.0494
ARG_OF_PERICENTER = 87.4660
MEAN_ANOMALY   = 272.9114

EPHEMERIS_TYPE = 0
CLASSIFICATION_TYPE = U
NORAD_CAT_ID   = 18153
ELEMENT_SET_NO = 999
REV_AT_EPOCH   = 6662
BSTAR          = .752589E-4
MEAN_MOTION_DOT = .678E-5
MEAN_MOTION_DDOT = 0

CCSDS_OMM_VERS = 2.0
CREATION_DATE  = 
ORIGINATOR     = 

OBJECT_NAME    = COSMOS 1867
OBJECT_ID      = 1987-060A
CENTER_NAME    = EARTH
REF_FRAME      = TEME
TIME_SYSTEM    = UTC
MEAN_ELEMENT_THEORY = SGP/SGP4

EPOCH          = 2026-02-15T07:04:59.060064
MEAN_MOTION    = 14.31499471
ECCENTRICITY   = .0014153
INCLINATION    = 65.0120
RA_OF_ASC_NODE = 9.4179
ARG_OF_PERICENTER = 277.2851
MEAN_ANOMALY   = 82.6624

EPHEMERIS_TYPE = 0
CLASSIFICATION_TYPE = U
NORAD_CAT_ID   = 18187
ELEMENT_SET_NO = 999
REV_AT_EPOCH   = 1673
BSTAR          = .32805E-4
MEAN_MOTION_DOT = -.13E-6
MEAN_MOTION_DDOT = 0

CCSDS_OMM_VERS = 2.0
CREATION_DATE  = 
ORIGINATOR     = 

OBJECT_NAME    = SL-14 R/B
OBJECT_ID      = 1988-001B
CENTER_NAME    = EARTH
REF_FRAME      = TEME
TIME_SYSTEM    = UTC
MEAN_ELEMENT_THEORY = SGP/SGP4

EPOCH          = 2026-02-15T12:17:42.558432
MEAN_MOTION    = 14.85500465
ECCENTRICITY   = .00169714
INCLINATION    = 82.5114
RA_OF_ASC_NODE = 216.2181
ARG_OF_PERICENTER = 315.3151
MEAN_ANOMALY   = 44.6696

EPHEMERIS_TYPE = 0
CLASSIFICATION_TYPE = U
NORAD_CAT_ID   = 18749
ELEMENT_SET_NO = 999
REV_AT_EPOCH   = 3873
BSTAR          = .68188396E-4
MEAN_MOTION_DOT = .614E-5
MEAN_MOTION_DDOT = 0

CCSDS_OMM_VERS = 2.0
CREATION_DATE  = 
ORIGINATOR     = 

OBJECT_NAME    = COSMOS 1933
OBJECT_ID      = 1988-020A
CENTER_NAME    = EARTH
REF_FRAME      = TEME
TIME_SYSTEM    = UTC
MEAN_ELEMENT_THEORY = SGP/SGP4

EPOCH          = 2026-02-15T16:56:16.429344
MEAN_MOTION    = 15.17786934
ECCENTRICITY   = .0002636
INCLINATION    = 82.5112
RA_OF_ASC_NODE = 272.6645
ARG_OF_PERICENTER = 285.1128
MEAN_ANOMALY   = 74.9814

EPHEMERIS_TYPE = 0
CLASSIFICATION_TYPE = U
NORAD_CAT_ID   = 18958
ELEMENT_SET_NO = 999
REV_AT_EPOCH   = 4689
BSTAR          = .225E-3
MEAN_MOTION_DOT = .4575E-4
MEAN_MOTION_DDOT = 0

CCSDS_OMM_VERS = 2.0
CREATION_DATE  = 
ORIGINATOR     = 

OBJECT_NAME    = SL-3 R/B
OBJECT_ID      = 1988-032B
CENTER_NAME    = EARTH
REF_FRAME      = TEME
TIME_SYSTEM    = UTC
MEAN_ELEMENT_THEORY = SGP/SGP4

EPOCH          = 2026-02-15T19:22:25.877280
MEAN_MOTION    = 15.19625596
ECCENTRICITY   = .002466
INCLINATION    = 97.5153
RA_OF_ASC_NODE = 30.1461
ARG_OF_PERICENTER = 313.5418
MEAN_ANOMALY   = 46.3768

EPHEMERIS_TYPE = 0
CLASSIFICATION_TYPE = U
NORAD_CAT_ID   = 19046
ELEMENT_SET_NO = 999
REV_AT_EPOCH   = 4878
BSTAR          = .3092E-3
MEAN_MOTION_DOT = .657E-4
MEAN_MOTION_DDOT = 0

CCSDS_OMM_VERS = 2.0
CREATION_DATE  = 
ORIGINATOR     = 

OBJECT_NAME    = SL-16 R/B
OBJECT_ID      = 1988-039B
CENTER_NAME    = EARTH
REF_FRAME      = TEME
TIME_SYSTEM    = UTC
MEAN_ELEMENT_THEORY = SGP/SGP4

EPOCH          = 2026-02-15T15:26:49.365024
MEAN_MOTION    = 14.19613075
ECCENTRICITY   = .00214
INCLINATION    = 71.0143
RA_OF_ASC_NODE = 115.1677
ARG_OF_PERICENTER = 7.7370
MEAN_ANOMALY   = 352.4081

EPHEMERIS_TYPE = 0
CLASSIFICATION_TYPE = U
NORAD_CAT_ID   = 19120
ELEMENT_SET_NO = 999
REV_AT_EPOCH   = 95525
BSTAR          = .1043E-3
MEAN_MOTION_DOT = .173E-5
MEAN_MOTION_DDOT = 0

CCSDS_OMM_VERS = 2.0
CREATION_DATE  = 
ORIGINATOR     = 

OBJECT_NAME    = COSMOS 1953
OBJECT_ID      = 1988-050A
CENTER_NAME    = EARTH
REF_FRAME      = TEME
TIME_SYSTEM    = UTC
MEAN_ELEMENT_THEORY = SGP/SGP4

EPOCH          = 2026-02-15T19:44:38.244768
MEAN_MOTION    = 15.28088930
ECCENTRICITY   = .001104
INCLINATION    = 82.5098
RA_OF_ASC_NODE = 180.2260
ARG_OF_PERICENTER = 196.4681
MEAN_ANOMALY   = 163.6201

EPHEMERIS_TYPE = 0
CLASSIFICATION_TYPE = U
NORAD_CAT_ID   = 19210
ELEMENT_SET_NO = 999
REV_AT_EPOCH   = 3444
BSTAR          = .40145E-3
MEAN_MOTION_DOT = .11047E-3
MEAN_MOTION_DDOT = 0

CCSDS_OMM_VERS = 2.0
CREATION_DATE  = 
ORIGINATOR     = 

OBJECT_NAME    = SL-8 R/B
OBJECT_ID      = 1988-053B
CENTER_NAME    = EARTH
REF_FRAME      = TEME
TIME_SYSTEM    = UTC
MEAN_ELEMENT_THEORY = SGP/SGP4

EPOCH          = 2026-02-15T18:24:44.320032
MEAN_MOTION    = 14.38902323
ECCENTRICITY   = .002071
INCLINATION    = 74.0485
RA_OF_ASC_NODE = 152.8719
ARG_OF_PERICENTER = 336.0110
MEAN_ANOMALY   = 142.6368

EPHEMERIS_TYPE = 0
CLASSIFICATION_TYPE = U
NORAD_CAT_ID   = 19257
ELEMENT_SET_NO = 999
REV_AT_EPOCH   = 97344
BSTAR          = .87088E-4
MEAN_MOTION_DOT = .242E-5
MEAN_MOTION_DDOT = 0

CCSDS_OMM_VERS = 2.0
CREATION_DATE  = 
ORIGINATOR     = 

OBJECT_NAME    = COSMOS 1975
OBJECT_ID      = 1988-093A
CENTER_NAME    = EARTH
REF_FRAME      = TEME
TIME_SYSTEM    = UTC
MEAN_ELEMENT_THEORY = SGP/SGP4

EPOCH          = 2026-02-15T17:15:51.118560
MEAN_MOTION    = 15.27689934
ECCENTRICITY   = .001043
INCLINATION    = 82.5225
RA_OF_ASC_NODE = 139.7283
ARG_OF_PERICENTER = 244.1915
MEAN_ANOMALY   = 115.8248

EPHEMERIS_TYPE = 0
CLASSIFICATION_TYPE = U
NORAD_CAT_ID   = 19573
ELEMENT_SET_NO = 999
REV_AT_EPOCH   = 1605
BSTAR          = .36333E-3
MEAN_MOTION_DOT = .9878E-4
MEAN_MOTION_DDOT = 0

CCSDS_OMM_VERS = 2.0
CREATION_DATE  = 
ORIGINATOR     = 

OBJECT_NAME    = SL-14 R/B
OBJECT_ID      = 1988-093B
CENTER_NAME    = EARTH
REF_FRAME      = TEME
TIME_SYSTEM    = UTC
MEAN_ELEMENT_THEORY = SGP/SGP4

EPOCH          = 2026-02-15T13:57:35.095680
MEAN_MOTION    = 14.85630186
ECCENTRICITY   = .002224
INCLINATION    = 82.5278
RA_OF_ASC_NODE = 62.8030
ARG_OF_PERICENTER = 109.9169
MEAN_ANOMALY   = 10.4034

EPHEMERIS_TYPE = 0
CLASSIFICATION_TYPE = U
NORAD_CAT_ID   = 19574
ELEMENT_SET_NO = 999
REV_AT_EPOCH   = 99775
BSTAR          = .54335E-4
MEAN_MOTION_DOT = .497E-5
MEAN_MOTION_DDOT = 0

CCSDS_OMM_VERS = 2.0
CREATION_DATE  = 
ORIGINATOR     = 

OBJECT_NAME    = SL-16 R/B
OBJECT_ID      = 1988-102B
CENTER_NAME    = EARTH
REF_FRAME      = TEME
TIME_SYSTEM    = UTC
MEAN_ELEMENT_THEORY = SGP/SGP4

EPOCH          = 2026-02-15T19:06:29.683296
MEAN_MOTION    = 14.16151350
ECCENTRICITY   = .0012783
INCLINATION    = 70.9989
RA_OF_ASC_NODE = 197.5588
ARG_OF_PERICENTER = 36.7851
MEAN_ANOMALY   = 323.4147

EPHEMERIS_TYPE = 0
CLASSIFICATION_TYPE = U
NORAD_CAT_ID   = 19650
ELEMENT_SET_NO = 999
REV_AT_EPOCH   = 92379
BSTAR          = .10587E-3
MEAN_MOTION_DOT = .162E-5
MEAN_MOTION_DDOT = 0

CCSDS_OMM_VERS = 2.0
CREATION_DATE  = 
ORIGINATOR     = 

OBJECT_NAME    = INTERCOSMOS 24
OBJECT_ID      = 1989-080A
CENTER_NAME    = EARTH
REF_FRAME      = TEME
TIME_SYSTEM    = UTC
MEAN_ELEMENT_THEORY = SGP/SGP4

EPOCH          = 2026-02-15T15:24:43.172640
MEAN_MOTION    = 12.59525682
ECCENTRICITY   = .1187604
INCLINATION    = 82.6056
RA_OF_ASC_NODE = 118.7569
ARG_OF_PERICENTER = 344.0310
MEAN_ANOMALY   = 12.6154

EPHEMERIS_TYPE = 0
CLASSIFICATION_TYPE = U
NORAD_CAT_ID   = 20261
ELEMENT_SET_NO = 999
REV_AT_EPOCH   = 66402
BSTAR          = .1637E-3
MEAN_MOTION_DOT = .562E-5
MEAN_MOTION_DDOT = 0

CCSDS_OMM_VERS = 2.0
CREATION_DATE  = 
ORIGINATOR     = 

OBJECT_NAME    = SL-14 R/B
OBJECT_ID      = 1989-080C
CENTER_NAME    = EARTH
REF_FRAME      = TEME
TIME_SYSTEM    = UTC
MEAN_ELEMENT_THEORY = SGP/SGP4

EPOCH          = 2026-02-15T18:58:36.332256
MEAN_MOTION    = 12.50465097
ECCENTRICITY   = .1229625
INCLINATION    = 82.5955
RA_OF_ASC_NODE = 187.2425
ARG_OF_PERICENTER = 234.8164
MEAN_ANOMALY   = 113.1677

EPHEMERIS_TYPE = 0
CLASSIFICATION_TYPE = U
NORAD_CAT_ID   = 20262
ELEMENT_SET_NO = 999
REV_AT_EPOCH   = 65741
BSTAR          = .15698E-3
MEAN_MOTION_DOT = .521E-5
MEAN_MOTION_DDOT = 0

CCSDS_OMM_VERS = 2.0
CREATION_DATE  = 
ORIGINATOR     = 

OBJECT_NAME    = DELTA 1 R/B
OBJECT_ID      = 1989-089B
CENTER_NAME    = EARTH
REF_FRAME      = TEME
TIME_SYSTEM    = UTC
MEAN_ELEMENT_THEORY = SGP/SGP4

EPOCH          = 2026-02-15T13:09:31.943232
MEAN_MOTION    = 14.50644489
ECCENTRICITY   = .0068763
INCLINATION    = 97.0721
RA_OF_ASC_NODE = 257.5062
ARG_OF_PERICENTER = 191.4899
MEAN_ANOMALY   = 168.4733

EPHEMERIS_TYPE = 0
CLASSIFICATION_TYPE = U
NORAD_CAT_ID   = 20323
ELEMENT_SET_NO = 999
REV_AT_EPOCH   = 89252
BSTAR          = .10107E-3
MEAN_MOTION_DOT = .373E-5
MEAN_MOTION_DDOT = 0

CCSDS_OMM_VERS = 2.0
CREATION_DATE  = 
ORIGINATOR     = 

OBJECT_NAME    = ARIANE 40 R/B
OBJECT_ID      = 1990-005H
CENTER_NAME    = EARTH
REF_FRAME      = TEME
TIME_SYSTEM    = UTC
MEAN_ELEMENT_THEORY = SGP/SGP4

EPOCH          = 2026-02-15T18:50:01.354560
MEAN_MOTION    = 14.39855579
ECCENTRICITY   = .0008867
INCLINATION    = 98.3132
RA_OF_ASC_NODE = 108.0935
ARG_OF_PERICENTER = 269.9141
MEAN_ANOMALY   = 90.1031

EPHEMERIS_TYPE = 0
CLASSIFICATION_TYPE = U
NORAD_CAT_ID   = 20443
ELEMENT_SET_NO = 999
REV_AT_EPOCH   = 88965
BSTAR          = .10362E-3
MEAN_MOTION_DOT = .283E-5
MEAN_MOTION_DDOT = 0

